HIMAWARI-8              
1 40267U 14060A   23186.33314282 -.00000276  00000+0  00000+0 0  9990
2 40267   0.0282 295.1744 0001170 183.1195  65.3491  1.00270472 32053
